

                         Two Line Element Set                        
---------------------------------------------------------------------
1 99999U          21305.00000000 -.00000084  00000-0 -33204-4 0 00009
2 99999 038.0178 240.0116 0006451 266.2851 170.0742 14.28321944000014


                         Two Line Element Set                        
---------------------------------------------------------------------
1 99999U          21305.00000000 -.00000084  00000-0 -33204-4 0 00009
2 99999 038.0178 240.0116 0006451 266.2851 186.4379 14.28321944000011


                         Two Line Element Set                        
---------------------------------------------------------------------
1 99999U          21305.00000000 -.00000084  00000-0 -33204-4 0 00009
2 99999 038.0178 240.0116 0006451 266.2851 202.8015 14.28321944000011


                         Two Line Element Set                        
---------------------------------------------------------------------
1 99999U          21305.00000000 -.00000084  00000-0 -33204-4 0 00009
2 99999 038.0178 240.0116 0006451 266.2851 219.1651 14.28321944000018


                         Two Line Element Set                        
---------------------------------------------------------------------
1 99999U          21305.00000000 -.00000084  00000-0 -33204-4 0 00009
2 99999 038.0178 240.0116 0006451 266.2851 235.5288 14.28321944000016


                         Two Line Element Set                        
---------------------------------------------------------------------
1 99999U          21305.00000000 -.00000084  00000-0 -33204-4 0 00009
2 99999 038.0178 240.0116 0006451 266.2851 251.8924 14.28321944000014


                         Two Line Element Set                        
---------------------------------------------------------------------
1 99999U          21305.00000000 -.00000084  00000-0 -33204-4 0 00009
2 99999 038.0178 240.0116 0006451 266.2851 268.2561 14.28321944000013


                         Two Line Element Set                        
---------------------------------------------------------------------
1 99999U          21305.00000000 -.00000084  00000-0 -33204-4 0 00009
2 99999 038.0178 240.0116 0006451 266.2851 284.6197 14.28321944000010


                         Two Line Element Set                        
---------------------------------------------------------------------
1 99999U          21305.00000000 -.00000084  00000-0 -33204-4 0 00009
2 99999 038.0178 240.0116 0006451 266.2851 300.9833 14.28321944000019


                         Two Line Element Set                        
---------------------------------------------------------------------
1 99999U          21305.00000000 -.00000084  00000-0 -33204-4 0 00009
2 99999 038.0178 240.0116 0006451 266.2851 317.3470 14.28321944000018


                         Two Line Element Set                        
---------------------------------------------------------------------
1 99999U          21305.00000000 -.00000084  00000-0 -33204-4 0 00009
2 99999 038.0178 240.0116 0006451 266.2851 333.7106 14.28321944000016


                         Two Line Element Set                        
---------------------------------------------------------------------
1 99999U          21305.00000000 -.00000084  00000-0 -33204-4 0 00009
2 99999 038.0178 240.0116 0006451 266.2851 350.0742 14.28321944000014


                         Two Line Element Set                        
---------------------------------------------------------------------
1 99999U          21305.00000000 -.00000084  00000-0 -33204-4 0 00009
2 99999 038.0178 240.0116 0006451 266.2851 006.4379 14.28321944000012


                         Two Line Element Set                        
---------------------------------------------------------------------
1 99999U          21305.00000000 -.00000084  00000-0 -33204-4 0 00009
2 99999 038.0178 240.0116 0006451 266.2851 022.8015 14.28321944000011


                         Two Line Element Set                        
---------------------------------------------------------------------
1 99999U          21305.00000000 -.00000084  00000-0 -33204-4 0 00009
2 99999 038.0178 240.0116 0006451 266.2851 039.1651 14.28321944000018


                         Two Line Element Set                        
---------------------------------------------------------------------
1 99999U          21305.00000000 -.00000084  00000-0 -33204-4 0 00009
2 99999 038.0178 240.0116 0006451 266.2851 055.5288 14.28321944000016


                         Two Line Element Set                        
---------------------------------------------------------------------
1 99999U          21305.00000000 -.00000084  00000-0 -33204-4 0 00009
2 99999 038.0178 240.0116 0006451 266.2851 071.8924 14.28321944000014


                         Two Line Element Set                        
---------------------------------------------------------------------
1 99999U          21305.00000000 -.00000084  00000-0 -33204-4 0 00009
2 99999 038.0178 240.0116 0006451 266.2851 088.2561 14.28321944000013


                         Two Line Element Set                        
---------------------------------------------------------------------
1 99999U          21305.00000000 -.00000084  00000-0 -33204-4 0 00009
2 99999 038.0178 300.0116 0006451 266.2851 107.3470 14.28321944000012


                         Two Line Element Set                        
---------------------------------------------------------------------
1 99999U          21305.00000000 -.00000084  00000-0 -33204-4 0 00009
2 99999 038.0178 300.0116 0006451 266.2851 123.7106 14.28321944000010


                         Two Line Element Set                        
---------------------------------------------------------------------
1 99999U          21305.00000000 -.00000084  00000-0 -33204-4 0 00009
2 99999 038.0178 300.0116 0006451 266.2851 140.0742 14.28321944000018


                         Two Line Element Set                        
---------------------------------------------------------------------
1 99999U          21305.00000000 -.00000084  00000-0 -33204-4 0 00009
2 99999 038.0178 300.0116 0006451 266.2851 156.4379 14.28321944000015


                         Two Line Element Set                        
---------------------------------------------------------------------
1 99999U          21305.00000000 -.00000084  00000-0 -33204-4 0 00009
2 99999 038.0178 300.0116 0006451 266.2851 172.8015 14.28321944000014
